{
  "type": "FeatureCollection",
  "features": [
    {
      "type": "Feature",
      "properties": {
        "norad_id": 64202,
        "name": "GPS BIII-8  (PRN 21)",
        "group": "gnss",
        "lat": 10.685257327690083,
        "lon": 46.5853078268982,
        "alt_km": 20176.17884169928,
        "timestamp": "2025-12-03T15:48:03.317107+00:00",
        "meta_object_name": "GPS BIII-8  (PRN 21)",
        "meta_object_id": "2025-116A",
        "meta_epoch": "2025-12-03T06:10:25.375296",
        "meta_mean_motion": 2.00558491,
        "meta_eccentricity": 0.00049939,
        "meta_inclination": 55.0986,
        "meta_ra_of_asc_node": 39.0246,
        "meta_arg_of_pericenter": 306.9577,
        "meta_mean_anomaly": 136.4728,
        "meta_ephemeris_type": 0,
        "meta_classification_type": "U",
        "meta_norad_cat_id": 64202,
        "meta_element_set_no": 999,
        "meta_rev_at_epoch": 394,
        "meta_bstar": 0,
        "meta_mean_motion_dot": -6.8e-07,
        "meta_mean_motion_ddot": 0,
        "tle_line1": "1 64202U 25116A   25337.25723814 -.00000068  00000+0  00000+0 0  9994",
        "tle_line2": "2 64202  55.0986  39.0246 0004993 306.9577 136.4728  2.00558491  3946"
      },
      "geometry": {
        "type": "Point",
        "coordinates": [
          46.5853078268982,
          10.685257327690083
        ]
      }
    },
    {
      "type": "Feature",
      "properties": {
        "norad_id": 65590,
        "name": "COSMOS 2596 (708K)",
        "group": "gnss",
        "lat": -64.71928274831467,
        "lon": -126.34517333271086,
        "alt_km": 19106.760454146955,
        "timestamp": "2025-12-03T15:48:03.317116+00:00",
        "meta_object_name": "COSMOS 2596 (708K)",
        "meta_object_id": "2025-206B",
        "meta_epoch": "2025-12-01T01:16:47.699904",
        "meta_mean_motion": 2.13100271,
        "meta_eccentricity": 0.00140756,
        "meta_inclination": 64.7507,
        "meta_ra_of_asc_node": 321.8815,
        "meta_arg_of_pericenter": 304.7151,
        "meta_mean_anomaly": 127.6712,
        "meta_ephemeris_type": 0,
        "meta_classification_type": "U",
        "meta_norad_cat_id": 65590,
        "meta_element_set_no": 999,
        "meta_rev_at_epoch": 168,
        "meta_bstar": 0,
        "meta_mean_motion_dot": -2.6e-07,
        "meta_mean_motion_ddot": 0,
        "tle_line1": "1 65590U 25206B   25335.05332986 -.00000026  00000+0  00000+0 0  9991",
        "tle_line2": "2 65590  64.7507 321.8815 0014075 304.7151 127.6712  2.13100271  1680"
      },
      "geometry": {
        "type": "Point",
        "coordinates": [
          -126.34517333271086,
          -64.71928274831467
        ]
      }
    }
  ]
}